#dP2020  9  3  0  0  0.00000000      96 __u+U ITR00 FIT  IAC
## 2121 345600.00000000   900.00000000 59095 0.0000000000000
+  115   C06C07C08C09C10C11C12C13C14C16C19C20C21C22C23C24C25
+        C26C27C28C29C30C32C33C34C35C36C37C38C39C40C43C44C45
+        C46E01E02E03E04E05E07E08E09E11E12E13E14E15E18E19E21
+        E24E25E26E27E30E31E33E36G01G02G03G04G05G06G07G08G09
+        G10G11G12G13G15G16G17G18G19G20G21G22G24G25G26G27G28
+        G29G30G31G32J01J02J03R01R02R03R04R05R07R08R09R11R12
+        R13R14R15R16R17R18R19R20R21R22R23R24R26  0  0  0  0
++         9  9  9  7  7  7  5  8  7  8  7  7  5  7  8  6  7
++         6  7  6  7  8  7  6  7  9  9  8  4  5  5  8  7  9
++        12  5  5  6  5  7  5  6  5  7  7  7  7  7  7  6  6
++         7  6  7  6  7  5  6  6  6  6  4  6  5  6  6  7  5
++         5  6  6  6  6  6  6  7  6  5  7  5  7  5  6  7  5
++         4  5  6  7  0  8  8  8  8  8  5  4  6  8  0  6  6
++         7  6  6  5  7  6  7  7  7  7  6  7  7  0  0  0  0
%c M  cc GPS ccc cccc cccc cccc cccc ccccc ccccc ccccc ccccc
%c cc cc ccc ccc cccc cccc cccc cccc ccccc ccccc ccccc ccccc
%f  0.0000000  0.000000000  0.00000000000  0.000000000000000
%f  0.0000000  0.000000000  0.00000000000  0.000000000000000
%i    0    0    0    0      0      0      0      0         0
%i    0    0    0    0      0      0      0      0         0
/* INFORMATION & ANALYSIS CENTER (IAC)      ULTRA-RAPID DATA
/* S/V CLOCKS ARE ALIGNED TO GNSS TIME                      
/* G:C1WC2W R:C1PC2P E:C1XC5X C:C2IC6I J:C1CC2S             
/* PCV:IGS14_2118 OL/AL:FES2004  NONE     YN ORB:CoN CLK:CoN
*  2020 09 03 17 30  0.00000000
PC06 -18901.426091  37403.820103   -296.566280    232.224774
PC07  -8556.595092  28389.973123  30375.080667     19.250900
PC08 -21939.056882  19830.902823 -30123.328522   -496.461143
PC09 -10036.475384  38448.309980  13741.499062    786.538385
PC10   4396.513185  35219.661315  23298.994186   -195.444231
PC11   2098.566360  18709.686597 -20563.310161   -597.423974
PC12 -13245.860924  23631.000186  -6749.336399    494.790162
PC13  -5922.754688  23186.106268 -34676.395468    629.019771
PC14  10618.452947  25840.657121    194.177717    928.070319
PC16 -16241.150368  38663.694581   3165.402165   -588.840682
PC19 -15534.371784 -21263.881471  -9188.270468    533.133780
PC20  -4776.451911 -26319.441707   7906.022124   -839.580897
PC21  -9283.448147  15894.439270 -20969.099758   -672.828172
PC22 -17523.349720  -3704.221703 -21393.703953   -764.732211
PC23  27647.978636   1852.207690  -3309.788408   -856.159653
PC24   1115.805038  16429.460746  22532.092827   -732.724791
PC25  21205.605205  12266.755725  13350.541716   -744.189740
PC26 -17736.606374  11023.096492  18525.371129    816.720383
PC27  18844.054997 -20446.891920  -2455.338073    392.777368
PC28  20615.887908  -5732.829231 -17905.370249   -174.709607
PC29 -10822.359109 -11865.153181  22813.378324    278.866338
PC30   5458.699467 -23456.319660  14105.595989    370.539273
PC32   9215.129523 -15925.764315  20986.835210   -895.189939
PC33  15641.642646  21245.275801   9126.670054   -795.011674
PC34  -5011.356153  23292.358423 -14524.545060   -863.053889
PC35 -20389.826142   6184.478304  18003.141013   -671.336718
PC36 -20747.659646 -12835.950064 -13507.444899   -924.011580
PC37  18575.626722 -10228.668587 -18106.723090   -923.036891
PC38 -18558.153768  22751.075807 -30326.848021 999999.999999
PC39 -14033.916592  39622.257293   2472.265104     21.827459
PC40   1084.555325  32564.749311  26894.034546 999999.999999
PC43  10586.468567  12302.145549 -22705.738680   -356.474866
PC44 -18232.711893  20946.350733   2598.181628 999999.999999
PC45 -27655.254754  -1740.404130   3383.911323 999999.999999
PC46  -1971.361529 -16353.085362 -22511.233029 999999.999999
PE01  24190.731259   2782.283018 -16823.199307   -933.185733
PE02 -24151.230389  -2681.018068  16914.781339    159.026416
PE03 -17063.462329   5864.659403 -23469.765406   -338.868436
PE04  10726.940703 -24472.858604  12735.511244   -599.721358
PE05 -13475.536932 -16457.664195 -20582.000515   -349.166790
PE07   2054.092545  28980.507607   5707.978818   -431.334678
PE08 -10362.811045  24721.571904 -12572.261349   6125.814753
PE09  -2269.128998 -28920.185480  -5835.868253   5942.676204
PE11    837.338617 -17801.645068  23623.464425   5247.997403
PE12  20352.547106 -18390.668095  11129.756703   5623.576131
PE13  -1080.560365  17829.066728 -23604.778017    403.439735
PE14   7309.303992  24477.605516 -19225.659204  -1143.058425
PE15 -20152.905074  18492.576891 -11321.844915    853.894078
PE18   -124.917023 -21994.634644  10378.641029  -1249.529093
PE19  17039.404171  -3326.312534  23977.782731     69.416025
PE21  24410.793303  16743.011740    390.327464   -619.423987
PE24  -9868.387534 -21349.689381 -17982.872321   5263.189611
PE25 -24359.903406 -16803.776017   -508.314480   -516.071200
PE26  19059.933113   6554.635857 -21675.467994   2768.149893
PE27  10360.375290  21307.588804  17754.320066    141.831278
PE30 -10282.080454  12972.611298  24538.808201   3613.711583
PE31   9687.636228 -13324.395756 -24577.060499   -473.923978
PE33  27377.119688  -8287.746093  -7610.778394   -463.050817
PE36 -18623.173357  -6689.770936  22014.076101    512.242046
PG01   3109.889942  14552.992485 -22236.662164     35.948701
PG02  18050.381219 -14835.393149  13240.559590   -511.412355
PG03  10707.381238  22246.931889 -10006.297899   -288.817701
PG04   1563.743459  22945.456385  13261.415744   -131.900081
PG05   7566.911408 -13839.465539  21195.596936    -20.277750
PG06  25910.470897  -5908.886472    568.749020   -322.291182
PG07  20175.662457   7638.696435  16130.448121   -364.606071
PG08  -5635.965800  25618.992011  -3124.378843    -46.696420
PG09  10682.749279  13682.169210  20043.736114   -280.540128
PG10 -20648.432221  -7260.543083 -15131.823820   -445.094258
PG11  -5237.206559  20682.116170 -16506.606894   -174.474574
PG12  -8112.451879 -22825.438616 -11296.647438     72.014672
PG13  13410.051762 -22559.032012   3570.087161     41.861169
PG15   2278.612914 -25982.358739  -4134.551140   -206.158169
PG16  -6681.595763  14570.133275  20867.443670   -204.280841
PG17  16159.487685  -4541.239399 -20148.837150    320.642873
PG18 -20453.541226  -7037.019020  15429.753212    283.253067
PG19  17351.404439 -11358.035137 -16852.356539   -109.742153
PG20 -21991.517114 -14566.857404  -4154.651687    526.852912
PG21 -21747.745939  12145.538694  -8044.614059     43.084517
PG22   4937.771203  20656.358439 -15840.644798   -758.090570
PG24   -572.456588 -16114.945290 -21271.036984    -18.078550
PG25 -17058.669257 -20508.817815  -1466.529178     44.052149
PG26 -16693.420118   3857.577587  20317.674494    272.622168
PG27 -12433.100625  21983.460448   7496.122848   -386.963292
PG28  19172.460433   7550.004467 -16090.604638    682.697468
PG29  -6705.079556 -17147.206002  19085.130963   -186.948910
PG30  25654.313088    835.862230   7304.189043   -294.864548
PG31 -25878.713287   6548.357018   2453.055116    -66.375750
PG32 -16500.894519   5759.614998 -19871.160515    341.596179
PJ01 -18573.208196  27299.385773 -21698.018010 999999.999999
PJ02 -28193.903005  20291.433806  28776.293984     -3.186533
PJ03 -32895.850855  25845.506517  10592.022970     -0.853235
PR01  -1376.038329 -24202.070267   7915.636200     67.039465
PR02 -10038.524571 -19492.436570 -13049.589951    443.957072
PR03 -11482.273819  -2652.868884 -22590.055012     21.369891
PR04  -6155.432229  15486.622648 -19286.670156     53.296901
PR05   2436.979801  24865.628590  -5077.778016     56.941650
PR07  11407.449948   1886.684107  22765.831330    -39.830146
PR08   6301.970283 -15498.643562  19311.436565    -54.350585
PR09  22465.642567  10568.552002   6038.416905 999999.999999
PR11  13214.332611  -6303.348697 -20879.931809    -36.355677
PR12  -4393.486341 -12416.857972 -21813.286045    160.815428
PR13 -20140.811431 -11738.624827 -10355.011030    -43.348078
PR14 -23983.160608  -4237.646020   7571.096523     55.164303
PR15 -13917.866491   5664.012487  20638.504547    106.987200
PR16   5204.356864  12579.460406  21531.303788     -5.983460
PR17 -18778.267136   6712.582225  15938.637045    355.093438
PR18 -19355.848167  16577.029957    193.436128     48.094643
PR19 -10546.644074  17489.890674 -15295.148652   -109.616554
PR20   6942.858794   7713.057818 -23299.274681   -420.876023
PR21  19069.674930  -7424.880397 -15208.254331   -149.634911
PR22  19109.528119 -16933.093355   1033.407368    -71.202002
PR23   4111.077237 -15288.724478  19985.176020    329.607890
PR24  -7925.686042  -7495.251387  23069.991232     11.997891
PR26   2457.046527  11298.224081 -22733.444554   -362.422803
EOF
